{"features":[{"id":"6ae2fba97025bdb6a278f6e7d662607a","type":"Feature","properties":{"fid":"6ae2fba97025bdb6a278f6e7d662607a","name":"LineString"},"geometry":{"coordinates":[[-75.471806467591,36.972916817905784],[-75.471806467591,36.984232114888584],[-75.45869137820526,36.984232114888584],[-75.45842907641753,36.99512673641584],[-75.2157999227797,36.99554572915633],[-75.21527531920425,36.82251540965717],[-75.48413465161353,36.82146554491213],[-75.48597076412761,36.97312637573387],[-75.4731179765296,36.97333593298427]],"type":"LineString"},"name":"LineString"}],"name":"costalvirginiaoffshorewind","type":"FeatureCollection"}