{"features":[{"id":"0def1b42bfd0ebf534a941517ea47c6e","type":"Feature","properties":{"fid":"0def1b42bfd0ebf534a941517ea47c6e","name":"LineString"},"geometry":{"coordinates":[[4.1457001228993136,52.42164102320834],[4.145918197363557,52.41632102983806],[4.12367460197396,52.391441545486174],[4.123238453045474,52.38971143404913],[4.164672601320831,52.37520244687363],[4.209814015494203,52.429619809794076],[4.206542898524702,52.433608661554814],[4.145482048847185,52.42283793281328],[4.145918197775387,52.42120048448851]],"type":"LineString"},"name":"LineString"}],"name":"eneco_lutherduinen_turbine_coordinates","type":"FeatureCollection"}