{"features":[{"id":"f14c4bf61349813f33163d147d02772a","type":"Feature","properties":{"fid":"f14c4bf61349813f33163d147d02772a","name":"LineString"},"geometry":{"coordinates":[[-71.20141771004,41.111006819889894],[-71.20027548597663,41.073703823486],[-71.17171988439496,41.073847337123254],[-71.17038728965466,41.062795870349646],[-71.07082342547295,41.064948899165785],[-71.07291750292215,41.11344512421448],[-71.20084659800861,41.11071995460384]],"type":"LineString"},"name":"LineString"}],"name":"sour_fork_wind","type":"FeatureCollection"}