{"features":[{"id":"74d5e33ccf2391335d56b3d844a3938a","type":"Feature","properties":{"fid":"74d5e33ccf2391335d56b3d844a3938a","name":"LineString"},"geometry":{"coordinates":[[-75.42507606017975,36.99261273208556],[-75.4410764692304,36.993241241107654],[-75.45524076576702,36.97773650255648],[-75.46783125157728,36.96264777814524],[-75.48173324632619,36.94650791606023],[-75.47963483202439,36.93120333014109],[-75.4780610212985,36.916105385422966],[-75.47543800342127,36.90037518080668],[-75.4736018909072,36.885061333652516],[-75.47176577839313,36.86911488626197],[-75.46966736409135,36.854004654553776],[-75.46783125157728,36.83784179524942],[-75.4654705354878,36.822515410253686],[-75.44920782464939,36.822935352118975],[-75.45235544610208,36.83847158100362],[-75.45445386040387,36.85421453934326],[-75.45655227470563,36.8701640969587],[-75.45865068900743,36.88485153359295],[-75.46048680152147,36.9005849382023],[-75.4623229140351,36.91568595539418],[-75.46442132833687,36.93099365693851],[-75.46651974263868,36.946717546580345],[-75.4528800496775,36.961599838995795],[-75.43871575314088,36.97731741171252],[-75.42350224945339,36.97731741171252],[-75.43714194241454,36.961599838995795],[-75.45051933358799,36.94608865329012],[-75.44868322107395,36.9314130027676],[-75.44710941034758,36.91589567069656],[-75.44474869425808,36.90037518080668],[-75.44265027995675,36.8856907303708],[-75.4410764692304,36.86995425597185],[-75.43924035671634,36.85379476918874],[-75.43740424420227,36.83910136157117],[-75.43451892453731,36.82314532218781],[-75.41878081727437,36.82314532218781],[-75.42166613693932,36.83868150843543],[-75.42350224945339,36.85421453934326],[-75.42533836196745,36.869744414409325],[-75.42717447448108,36.884641732957675],[-75.42901058699513,36.90079469502204],[-75.43163360487237,36.91547623951446],[-75.43346971738642,36.93162267481665],[-75.43556813168821,36.94650791606023],[-75.42166613693932,36.96201901638656],[-75.41930542084984,36.946717546580345],[-75.41746930833575,36.93120333014109],[-75.41353478151991,36.90037518080668],[-75.4114363672181,36.884641732957675],[-75.40986255649179,36.86911488626197],[-75.40802644397816,36.85379476918874],[-75.40592802967637,36.83910136157117],[-75.4040919171623,36.823775228936185],[-75.38835380989936,36.822935352118975],[-75.39045222420114,36.83889143529177],[-75.39202603492704,36.854004654553776],[-75.3935998456534,36.869534572269714],[-75.39779667425697,36.90037518080668],[-75.40041969213418,36.91547623951446],[-75.40225580464825,36.93162267481665],[-75.40435421895003,36.947136805889315],[-75.40592802967637,36.96264777814524],[-75.38966531883798,36.96222860421615],[-75.38835380989936,36.947346434678224],[-75.38677999917302,36.93162267481665],[-75.38441928308349,36.916315099571975],[-75.38232086878172,36.90100445126447],[-75.3810093598431,36.885271133134864],[-75.37891094554134,36.86932472955438],[-75.37681253123952,36.854634307192526],[-75.37471411693772,36.83889143529177],[-75.37287800442412,36.823775228936185],[-75.35740219894844,36.823565260596425],[-75.35897600967478,36.839311287275024],[-75.36133672576429,36.85379476918874],[-75.36369744185382,36.8701640969587],[-75.36868117582054,36.916105385422966],[-75.37077959012234,36.9314130027676],[-75.37314030621185,36.94692717652295],[-75.37523872030302,36.96243819102031],[-75.35927900066036,36.96243819087411],[-75.35770518993402,36.9469271759274],[-75.35534447384495,36.93141300217195],[-75.35403296490634,36.91631509897617],[-75.34773772200096,36.86995425537569],[-75.34380319518512,36.83805172381422],[-75.34222938445879,36.82356525999997],[-75.32622897540813,36.82335529108336],[-75.3285896914976,36.839101360974794],[-75.33042580401168,36.854004653957546],[-75.3317373129503,36.86953457167357],[-75.33357342546435,36.88548093144543],[-75.33593414155386,36.901004450668594],[-75.33777025406795,36.91568595479842],[-75.340130970157,36.931622674221],[-75.34380319518512,36.96285736364938],[-75.3456393076992,36.97752695682742],[-75.34773772200096,36.993241240512475],[-75.3317373129503,36.993241240512475],[-75.33042580401168,36.97752695682742],[-75.32885199328533,36.96180942738387],[-75.32622897540813,36.9467175459848],[-75.32413056110633,36.931622674221],[-75.32255675038,36.91631509897617],[-75.32019603429093,36.90037518021076],[-75.31809761998913,36.88548093144543],[-75.3167861110505,36.86953457167357],[-75.31494999853645,36.85442442295944],[-75.31311388602238,36.839521211805646],[-75.31075316993288,36.82440512990367],[-75.29527736445765,36.8237752283397],[-75.29737577875943,36.839101360974794],[-75.29894958948577,36.85484418965616],[-75.30052340021209,36.869324728958276],[-75.30472022881567,36.900794694426125],[-75.30681864311704,36.91652481254927],[-75.30839245384338,36.93204201658955],[-75.31049086814515,36.9467175459848],[-75.3123269806592,36.96222860362073],[-75.31521230032418,36.97815559049715],[-75.31731071462596,36.99303173808248],[-75.30052340021209,36.9936602436419],[-75.28530989652458,36.993241240512475],[-75.28347378401054,36.9779460465173],[-75.28163767149647,36.96285736364938],[-75.27953925719468,36.94713680529381],[-75.29501506266992,36.94734643408269],[-75.29344125194358,36.931622674221],[-75.27717854110517,36.93183234569399],[-75.27560473037884,36.91568595479842],[-75.27376861786477,36.90163371593793],[-75.27193250535073,36.88548093144543],[-75.28662140546321,36.886110324704745],[-75.28478529294917,36.87016409636257],[-75.26878488389846,36.86995425537569],[-75.26799797853532,36.85484418965616],[-75.28242457685963,36.85442442295944],[-75.28216227507193,36.839521211805646],[-75.26485035708264,36.839101360974794],[-75.26380114993175,36.82398519610405],[-75.27927695540696,36.82356525999997],[-75.24832534445652,36.82335529108336],[-75.24989915518283,36.83931128667868],[-75.2517352676969,36.855054072139666],[-75.25462058736142,36.870583776606324],[-75.25593209630003,36.88527113253883],[-75.25829281238954,36.90058493760637],[-75.2598666231159,36.91673452554494],[-75.26222733920541,36.93204201658955],[-75.26432575350718,36.947765689930634],[-75.26668646959668,36.96285736364938],[-75.26773567674759,36.9779460465173],[-75.26957178926166,36.99386974434128],[-75.2533090784228,36.99345074236611],[-75.25199756948464,36.978365133899175],[-75.250686060546,36.96348611848484],[-75.24832534445652,36.9469271759274],[-75.24622693015472,36.93141300217195],[-75.2441285158529,36.915056805429984],[-75.24045629082481,36.88485153299699],[-75.23888248009847,36.86890504179772],[-75.23678406579668,36.85463430659628],[-75.23494795328261,36.838891434695356],[-75.2328495389813,36.8237752283397],[-75.21711143171787,36.82356525999997],[-75.21947214780738,36.838891434695356],[-75.22104595853372,36.8552639540476],[-75.22340667462325,36.86995425537569],[-75.22498048534958,36.88506133305647],[-75.2262919942882,36.90058493760637],[-75.22917731395316,36.91589567010078],[-75.23127572825494,36.93246135665105],[-75.23468565149489,36.96285736364938],[-75.2370463675844,36.97815559049715],[-75.22025905317057,36.9779460465173],[-75.21894754423194,36.963066949171235]],"type":"LineString"},"name":"LineString"}],"name":"costalvirginiaoffshorewind_tbl","type":"FeatureCollection"}