{"features":[{"id":"9c795430e613b709b5bc03349f48d625","type":"Feature","properties":{"fid":"9c795430e613b709b5bc03349f48d625","name":"LineString"},"geometry":{"coordinates":[[4.153986952555272,52.422970921259775],[4.171214835258411,52.425630597016635],[4.185825824386285,52.42775822209222],[4.204580228343588,52.43094946715999],[4.2004368135156085,52.42416779520707],[4.194984951900693,52.417917095245826],[4.1856077499220135,52.421109052755355],[4.178193218126012,52.42363585524194],[4.161837633279788,52.420843065121886],[4.168816016147332,52.418316102571595],[4.175358250086418,52.41618802177993],[4.181682409559755,52.41392682340759],[4.188660792427328,52.41139946449127],[4.183863154205142,52.40488087046097],[4.1764486224091115,52.407275567960994],[4.1696883140058105,52.40940407883107],[4.162709931138238,52.411665509092245],[4.1550773248779365,52.41419285276328],[4.148098942010421,52.41672005160612],[4.1422109314655415,52.41060132105952],[4.149189314333086,52.408073771573584],[4.156385771664901,52.405679117404844],[4.163800303462438,52.403018238087384],[4.170996760794196,52.400756364481424],[4.177975143661712,52.3980951882516],[4.173613654369547,52.39117537890979],[4.165981048107767,52.393970047907914],[4.158566516311737,52.39689760658547],[4.15137005897995,52.39915967800317],[4.143955527182413,52.40142163346118],[4.136322920922112,52.40408260907313],[4.131089133771496,52.39742986911611],[4.139157888961677,52.39463541920651],[4.146354346293492,52.39224003558465],[4.153550803625308,52.389977609453496],[4.160965335421366,52.38744887830492],[4.168816016147332,52.384520692836986],[4.164890675785102,52.37786500352166],[4.156385771664901,52.3799949332593],[4.1485350909388785,52.38318963523565],[4.140684410212884,52.3863841060616],[4.133051803952583,52.388114347915405],[4.125419197690832,52.39064304094191]],"type":"LineString"},"name":"LineString"}],"name":"eneco_lutherduinen_turbine_coordinates_tbl","type":"FeatureCollection"}