{"features":[{"id":"09bed3d2a241c54bc4fef0130c2c2f13","type":"Feature","properties":{"fid":"09bed3d2a241c54bc4fef0130c2c2f13","name":"Sour_fork_wind_TBL"},"geometry":{"coordinates":[[-71.19115354199586,41.07529719777233],[-71.19033224936977,41.09216629180588],[-71.18910031043059,41.1090310554892],[-71.16897864109217,41.1093404602353],[-71.1683626716229,41.09201154915672],[-71.16754137899677,41.07653544365817],[-71.14639309387601,41.076690222753626],[-71.12421819297293,41.07715455785382],[-71.12380754665988,41.09340421987969],[-71.12483416244278,41.1093404602353],[-71.14680374018909,41.1093404602353],[-71.1024539383829,41.09355895924898],[-71.10183796891361,41.07823799366591]],"type":"LineString"},"name":"Sour_fork_wind_TBL"}],"name":"sour_fork_wind_tbl","type":"FeatureCollection"}